[{"OBJECT_NAME":"STARLINK-36380","OBJECT_ID":"2026-059Z","EPOCH":"2026-03-31T16:00:01.999584","MEAN_MOTION":15.82936644,"ECCENTRICITY":7.61e-5,"INCLINATION":53.1592,"RA_OF_ASC_NODE":252.5705,"ARG_OF_PERICENTER":67.0637,"MEAN_ANOMALY":229.5322,"EPHEMERIS_TYPE":0,"CLASSIFICATION_TYPE":"U","NORAD_CAT_ID":68344,"ELEMENT_SET_NO":999,"REV_AT_EPOCH":257,"BSTAR":-0.010483,"MEAN_MOTION_DOT":-0.01978563,"MEAN_MOTION_DDOT":0},{"OBJECT_NAME":"STARLINK-37214","OBJECT_ID":"2026-059AA","EPOCH":"2026-03-31T16:00:01.999584","MEAN_MOTION":15.83790224,"ECCENTRICITY":5.91e-5,"INCLINATION":53.1593,"RA_OF_ASC_NODE":252.5383,"ARG_OF_PERICENTER":65.4106,"MEAN_ANOMALY":246.4881,"EPHEMERIS_TYPE":0,"CLASSIFICATION_TYPE":"U","NORAD_CAT_ID":68345,"ELEMENT_SET_NO":999,"REV_AT_EPOCH":257,"BSTAR":-0.010059,"MEAN_MOTION_DOT":-0.01977767,"MEAN_MOTION_DDOT":0},{"OBJECT_NAME":"STARLINK-37169","OBJECT_ID":"2026-059AB","EPOCH":"2026-03-31T16:00:01.999584","MEAN_MOTION":15.83992471,"ECCENTRICITY":6.43e-5,"INCLINATION":53.1592,"RA_OF_ASC_NODE":252.5304,"ARG_OF_PERICENTER":75.5653,"MEAN_ANOMALY":240.0732,"EPHEMERIS_TYPE":0,"CLASSIFICATION_TYPE":"U","NORAD_CAT_ID":68346,"ELEMENT_SET_NO":999,"REV_AT_EPOCH":257,"BSTAR":-0.0099069,"MEAN_MOTION_DOT":-0.01968431,"MEAN_MOTION_DDOT":0},{"OBJECT_NAME":"STARLINK-37136","OBJECT_ID":"2026-059AC","EPOCH":"2026-03-31T16:00:01.999584","MEAN_MOTION":15.84180643,"ECCENTRICITY":6.81e-5,"INCLINATION":53.1593,"RA_OF_ASC_NODE":252.5226,"ARG_OF_PERICENTER":79.0676,"MEAN_ANOMALY":240.3322,"EPHEMERIS_TYPE":0,"CLASSIFICATION_TYPE":"U","NORAD_CAT_ID":68347,"ELEMENT_SET_NO":999,"REV_AT_EPOCH":257,"BSTAR":-0.0098087,"MEAN_MOTION_DOT":-0.01966979,"MEAN_MOTION_DDOT":0},{"OBJECT_NAME":"STARLINK-37182","OBJECT_ID":"2026-059AD","EPOCH":"2026-03-31T16:00:01.999584","MEAN_MOTION":15.83565641,"ECCENTRICITY":7.7e-5,"INCLINATION":53.1593,"RA_OF_ASC_NODE":252.5461,"ARG_OF_PERICENTER":69.8164,"MEAN_ANOMALY":238.3665,"EPHEMERIS_TYPE":0,"CLASSIFICATION_TYPE":"U","NORAD_CAT_ID":68348,"ELEMENT_SET_NO":999,"REV_AT_EPOCH":257,"BSTAR":-0.010274,"MEAN_MOTION_DOT":-0.0199557,"MEAN_MOTION_DDOT":0},{"OBJECT_NAME":"STARLINK-37183","OBJECT_ID":"2026-059AE","EPOCH":"2026-03-31T16:00:01.999584","MEAN_MOTION":15.84374138,"ECCENTRICITY":7.76e-5,"INCLINATION":53.1593,"RA_OF_ASC_NODE":252.5151,"ARG_OF_PERICENTER":74.3099,"MEAN_ANOMALY":248.7937,"EPHEMERIS_TYPE":0,"CLASSIFICATION_TYPE":"U","NORAD_CAT_ID":68349,"ELEMENT_SET_NO":999,"REV_AT_EPOCH":257,"BSTAR":-0.0096985,"MEAN_MOTION_DOT":-0.01963803,"MEAN_MOTION_DDOT":0},{"OBJECT_NAME":"CENTISPACE-1 OBJECT A","OBJECT_ID":"2026-060A","EPOCH":"2026-03-31T20:29:43.612800","MEAN_MOTION":14.74886842,"ECCENTRICITY":0.0013005,"INCLINATION":54.9826,"RA_OF_ASC_NODE":351.2044,"ARG_OF_PERICENTER":316.2807,"MEAN_ANOMALY":43.7161,"EPHEMERIS_TYPE":0,"CLASSIFICATION_TYPE":"U","NORAD_CAT_ID":68350,"ELEMENT_SET_NO":999,"REV_AT_EPOCH":136,"BSTAR":0.00033565,"MEAN_MOTION_DOT":2.063e-5,"MEAN_MOTION_DDOT":0},{"OBJECT_NAME":"CENTISPACE-1 OBJECT B","OBJECT_ID":"2026-060B","EPOCH":"2026-03-31T20:29:25.600992","MEAN_MOTION":14.74925935,"ECCENTRICITY":0.0013242,"INCLINATION":54.9826,"RA_OF_ASC_NODE":351.2032,"ARG_OF_PERICENTER":316.7104,"MEAN_ANOMALY":43.2854,"EPHEMERIS_TYPE":0,"CLASSIFICATION_TYPE":"U","NORAD_CAT_ID":68351,"ELEMENT_SET_NO":999,"REV_AT_EPOCH":136,"BSTAR":0.00033906,"MEAN_MOTION_DOT":2.088e-5,"MEAN_MOTION_DDOT":0},{"OBJECT_NAME":"CENTISPACE-1 OBJECT C","OBJECT_ID":"2026-060C","EPOCH":"2026-03-31T20:27:48.729312","MEAN_MOTION":14.75101089,"ECCENTRICITY":0.00125,"INCLINATION":54.9798,"RA_OF_ASC_NODE":351.1972,"ARG_OF_PERICENTER":322.0503,"MEAN_ANOMALY":37.9615,"EPHEMERIS_TYPE":0,"CLASSIFICATION_TYPE":"U","NORAD_CAT_ID":68352,"ELEMENT_SET_NO":999,"REV_AT_EPOCH":136,"BSTAR":4.3578e-5,"MEAN_MOTION_DOT":8.7e-7,"MEAN_MOTION_DDOT":0},{"OBJECT_NAME":"CENTISPACE-1 OBJECT D","OBJECT_ID":"2026-060D","EPOCH":"2026-03-31T12:19:36.304032","MEAN_MOTION":14.75128916,"ECCENTRICITY":0.00132122,"INCLINATION":54.9893,"RA_OF_ASC_NODE":352.5746,"ARG_OF_PERICENTER":325.1986,"MEAN_ANOMALY":34.8148,"EPHEMERIS_TYPE":0,"CLASSIFICATION_TYPE":"U","NORAD_CAT_ID":68353,"ELEMENT_SET_NO":999,"REV_AT_EPOCH":131,"BSTAR":4.3489466e-5,"MEAN_MOTION_DOT":8.6e-7,"MEAN_MOTION_DDOT":0},{"OBJECT_NAME":"CENTISPACE-1 OBJECT E","OBJECT_ID":"2026-060E","EPOCH":"2026-03-31T20:26:55.478400","MEAN_MOTION":14.75201299,"ECCENTRICITY":0.0013303,"INCLINATION":54.9769,"RA_OF_ASC_NODE":351.1879,"ARG_OF_PERICENTER":323.1045,"MEAN_ANOMALY":36.9038,"EPHEMERIS_TYPE":0,"CLASSIFICATION_TYPE":"U","NORAD_CAT_ID":68354,"ELEMENT_SET_NO":999,"REV_AT_EPOCH":136,"BSTAR":4.312e-5,"MEAN_MOTION_DOT":8.4e-7,"MEAN_MOTION_DDOT":0},{"OBJECT_NAME":"CENTISPACE-1 OBJECT F","OBJECT_ID":"2026-060F","EPOCH":"2026-03-31T20:26:37.248000","MEAN_MOTION":14.7523781,"ECCENTRICITY":0.0013857,"INCLINATION":54.9764,"RA_OF_ASC_NODE":351.1868,"ARG_OF_PERICENTER":322.0355,"MEAN_ANOMALY":37.9667,"EPHEMERIS_TYPE":0,"CLASSIFICATION_TYPE":"U","NORAD_CAT_ID":68355,"ELEMENT_SET_NO":999,"REV_AT_EPOCH":136,"BSTAR":4.3812e-5,"MEAN_MOTION_DOT":8.9e-7,"MEAN_MOTION_DDOT":0},{"OBJECT_NAME":"CENTISPACE-1 OBJECT G","OBJECT_ID":"2026-060G","EPOCH":"2026-03-31T20:25:55.483968","MEAN_MOTION":14.75312041,"ECCENTRICITY":0.0013868,"INCLINATION":54.9881,"RA_OF_ASC_NODE":351.1941,"ARG_OF_PERICENTER":322.8654,"MEAN_ANOMALY":37.1385,"EPHEMERIS_TYPE":0,"CLASSIFICATION_TYPE":"U","NORAD_CAT_ID":68356,"ELEMENT_SET_NO":999,"REV_AT_EPOCH":136,"BSTAR":4.3955e-5,"MEAN_MOTION_DOT":9.0e-7,"MEAN_MOTION_DDOT":0},{"OBJECT_NAME":"CENTISPACE-1 OBJECT H","OBJECT_ID":"2026-060H","EPOCH":"2026-03-31T12:17:09.150144","MEAN_MOTION":14.75426694,"ECCENTRICITY":0.0014896,"INCLINATION":54.9825,"RA_OF_ASC_NODE":352.5691,"ARG_OF_PERICENTER":321.7973,"MEAN_ANOMALY":38.197,"EPHEMERIS_TYPE":0,"CLASSIFICATION_TYPE":"U","NORAD_CAT_ID":68357,"ELEMENT_SET_NO":999,"REV_AT_EPOCH":131,"BSTAR":0.00033642,"MEAN_MOTION_DOT":2.097e-5,"MEAN_MOTION_DDOT":0},{"OBJECT_NAME":"CENTISPACE-1 OBJECT J","OBJECT_ID":"2026-060J","EPOCH":"2026-03-31T20:24:59.195232","MEAN_MOTION":14.75410528,"ECCENTRICITY":0.0014713,"INCLINATION":54.9868,"RA_OF_ASC_NODE":351.1882,"ARG_OF_PERICENTER":324.7345,"MEAN_ANOMALY":35.2679,"EPHEMERIS_TYPE":0,"CLASSIFICATION_TYPE":"U","NORAD_CAT_ID":68358,"ELEMENT_SET_NO":999,"REV_AT_EPOCH":136,"BSTAR":4.4216e-5,"MEAN_MOTION_DOT":9.2e-7,"MEAN_MOTION_DDOT":0},{"OBJECT_NAME":"CENTISPACE-1 OBJECT K","OBJECT_ID":"2026-060K","EPOCH":"2026-03-31T20:24:19.103040","MEAN_MOTION":14.75491361,"ECCENTRICITY":0.0014985,"INCLINATION":54.976,"RA_OF_ASC_NODE":351.1848,"ARG_OF_PERICENTER":323.9519,"MEAN_ANOMALY":36.0469,"EPHEMERIS_TYPE":0,"CLASSIFICATION_TYPE":"U","NORAD_CAT_ID":68359,"ELEMENT_SET_NO":999,"REV_AT_EPOCH":136,"BSTAR":4.4334e-5,"MEAN_MOTION_DOT":9.3e-7,"MEAN_MOTION_DDOT":0}]
